NORAD_CAT_ID,OBJECT_NAME,OBJECT_TYPE,EPOCH,MEAN_MOTION,ECCENTRICITY,INCLINATION,RA_OF_ASC_NODE,ARG_OF_PERICENTER,MEAN_ANOMALY,BSTAR,MEAN_MOTION_DOT,MEAN_MOTION_DDOT,TLE_LINE0,TLE_LINE1,TLE_LINE2,SEMIMAJOR_AXIS,PERIOD,APOGEE,PERIGEE,DECAYED
55279.0,STARLINK-5323,PAYLOAD,2023-05-14 08:57:14,14.99137823,0.0003147,69.998,122.2838,269.9915,90.0884,1.4532e-05,8.3e-07,0.0,0 STARLINK-5323,1 55279U 23010L   23134.37308594  .00000083  00000-0  14532-4 0  9996,2 55279  69.9980 122.2838 0003147 269.9915  90.0884 14.99137823 18457,6947.696,96.055,571.747,567.374,0.0
55279.0,STARLINK-5323,PAYLOAD,2023-05-14 16:57:40,14.99112962,0.000302,69.9981,121.4413,272.0657,88.0157,0.00043261,5.178e-05,0.0,0 STARLINK-5323,1 55279U 23010L   23134.70671319  .00005178  00000-0  43261-3 0  9991,2 55279  69.9981 121.4413 0003020 272.0657  88.0157 14.99112962 18183,6947.773,96.057,571.736,567.539,0.0
55279.0,STARLINK-5323,PAYLOAD,2023-05-15 04:10:14,14.99129669,0.0003108,69.9981,120.2621,271.2805,88.7998,0.00016758,1.948e-05,0.0,0 STARLINK-5323,1 55279U 23010L   23135.17377369  .00001948  00000-0  16758-3 0  9993,2 55279  69.9981 120.2621 0003108 271.2805  88.7998 14.99129669 18254,6947.721,96.056,571.745,567.427,0.0
55279.0,STARLINK-5323,PAYLOAD,2023-05-15 08:58:28,14.99142034,0.0003089,69.9982,119.7566,269.208,90.8726,-1.4252e-05,-2.67e-06,0.0,0 STARLINK-5323,1 55279U 23010L   23135.37394303 -.00000267  00000-0 -14252-4 0  9995,2 55279  69.9982 119.7566 0003089 269.2080  90.8726 14.99142034 18609,6947.683,96.055,571.694,567.402,0.0
55279.0,STARLINK-5323,PAYLOAD,2023-05-16 08:59:43,14.99136175,0.0002936,69.9986,117.2304,267.3599,92.7225,3.5839e-05,3.43e-06,0.0,0 STARLINK-5323,1 55279U 23010L   23136.37480549  .00000343  00000-0  35839-4 0  9991,2 55279  69.9986 117.2304 0002936 267.3599  92.7225 14.99136175 18435,6947.701,96.055,571.606,567.526,0.0
55279.0,STARLINK-5323,PAYLOAD,2023-05-16 21:48:22,14.99138666,0.0003026,69.9985,115.8824,269.8764,90.2049,5.1958e-06,-3e-07,0.0,0 STARLINK-5323,1 55279U 23010L   23136.90859686 -.00000030  00000-0  51958-5 0  9997,2 55279  69.9985 115.8824 0003026 269.8764  90.2049 14.99138666 18835,6947.693,96.055,571.661,567.456,0.0
55279.0,STARLINK-5323,PAYLOAD,2023-05-17 09:00:57,14.9914012,0.0003012,69.9986,114.7035,269.2397,90.8418,1.6134e-05,1.03e-06,0.0,0 STARLINK-5323,1 55279U 23010L   23137.37566323  .00000103  00000-0  16134-4 0  9998,2 55279  69.9986 114.7035 0003012 269.2397  90.8418 14.99140120 18585,6947.689,96.055,571.646,567.461,0.0
55279.0,STARLINK-5323,PAYLOAD,2023-05-18 07:26:06,14.9913428,0.0002893,69.9988,112.3451,269.077,91.0058,6.4507e-05,6.92e-06,0.0,0 STARLINK-5323,1 55279U 23010L   23138.30980184  .00000692  00000-0  64507-4 0  9997,2 55279  69.9988 112.3451 0002893 269.0770  91.0058 14.99134280 19047,6947.707,96.055,571.582,567.562,0.0
55279.0,STARLINK-5323,PAYLOAD,2023-05-19 02:39:06,14.99138213,0.0002952,69.9989,110.3238,270.2441,89.8381,-1.6928e-06,-1.14e-06,0.0,0 STARLINK-5323,1 55279U 23010L   23139.11048925 -.00000114  00000-0 -16928-5 0  9991,2 55279  69.9989 110.3238 0002952 270.2441  89.8381 14.99138213 18845,6947.695,96.055,571.611,567.509,0.0
55279.0,STARLINK-5323,PAYLOAD,2023-05-19 21:52:05,14.99131872,0.0003095,69.9988,108.3023,272.6656,87.415,0.00016235,1.885e-05,0.0,0 STARLINK-5323,1 55279U 23010L   23139.91117502  .00001885  00000-0  16235-3 0  9990,2 55279  69.9988 108.3023 0003095 272.6656  87.4150 14.99131872 19287,6947.714,96.056,571.73,567.429,0.0
55279.0,STARLINK-5323,PAYLOAD,2023-05-20 02:40:20,14.99132232,0.0003205,69.9986,107.7971,274.3382,85.7412,0.00017255,2.009e-05,0.0,0 STARLINK-5323,1 55279U 23010L   23140.11134700  .00002009  00000-0  17255-3 0  9995,2 55279  69.9986 107.7971 0003205 274.3382  85.7412 14.99132232 18998,6947.713,96.056,571.805,567.351,0.0
55279.0,STARLINK-5323,PAYLOAD,2023-05-20 07:28:34,14.99143946,0.0002993,69.9988,107.2914,270.4533,89.6284,7.1347e-05,7.76e-06,0.0,0 STARLINK-5323,1 55279U 23010L   23140.31151447  .00000776  00000-0  71347-4 0  9996,2 55279  69.9988 107.2914 0002993 270.4533  89.6284 14.99143946 19029,6947.677,96.055,571.621,567.463,0.0
55279.0,STARLINK-5323,PAYLOAD,2023-05-20 15:28:59,14.99142488,0.000296,69.999,106.4497,271.2059,88.8761,5.8367e-05,6.18e-06,0.0,0 STARLINK-5323,1 55279U 23010L   23140.64513499  .00000618  00000-0  58367-4 0  9993,2 55279  69.9990 106.4497 0002960 271.2059  88.8761 14.99142488 19396,6947.681,96.055,571.603,567.49,0.0
55279.0,STARLINK-5323,PAYLOAD,2023-05-21 07:29:48,14.99147059,0.0002963,69.9989,104.7646,266.8401,93.242,6.1787e-05,6.59e-06,0.0,0 STARLINK-5323,1 55279U 23010L   23141.31236943  .00000659  00000-0  61787-4 0  9999,2 55279  69.9989 104.7646 0002963 266.8401  93.2420 14.99147059 19172,6947.667,96.055,571.591,567.474,0.0
55279.0,STARLINK-5323,PAYLOAD,2023-05-22 04:19:25,14.98765665,0.0003255,69.999,102.576,265.972,94.1067,-0.0039883,-0.00047895,0.0,0 STARLINK-5323,1 55279U 23010L   23142.18015242 -.00047895  00000-0 -39883-2 0  9997,2 55279  69.9990 102.5760 0003255 265.9720  94.1067 14.98765665 19306,6948.846,96.079,572.973,568.449,0.0
55279.0,STARLINK-5323,PAYLOAD,2023-05-22 07:31:41,14.98708026,0.0003411,69.9988,102.2401,267.3066,92.7703,-0.0045014,-0.00053919,0.0,0 STARLINK-5323,1 55279U 23010L   23142.31367912 -.00053919  00000-0 -45014-2 0  9993,2 55279  69.9988 102.2401 0003411 267.3066  92.7703 14.98708026 19326,6949.024,96.083,573.259,568.519,0.0
55279.0,STARLINK-5323,PAYLOAD,2023-05-23 02:45:04,14.98634714,0.0003413,69.9988,100.2193,267.9323,92.1446,-0.0043195,-0.00051662,0.0,0 STARLINK-5323,1 55279U 23010L   23143.11463736 -.00051662  00000-0 -43195-2 0  9994,2 55279  69.9988 100.2193 0003413 267.9323  92.1446 14.98634714 19449,6949.251,96.087,573.488,568.744,0.0
55279.0,STARLINK-5323,PAYLOAD,2023-05-23 07:33:25,14.98619058,0.0003376,69.9989,99.7145,268.0631,92.0141,-0.0042308,-0.0005059,0.0,0 STARLINK-5323,1 55279U 23010L   23143.31488417 -.00050590  00000-0 -42308-2 0  9993,2 55279  69.9989  99.7145 0003376 268.0631  92.0141 14.98619058 19794,6949.299,96.088,573.51,568.818,0.0
55279.0,STARLINK-5323,PAYLOAD,2023-05-24 02:46:54,14.9846549,0.0003266,69.9989,97.6944,257.459,102.6204,-0.0020742,-0.00024842,0.0,0 STARLINK-5323,1 55279U 23010L   23144.11591431 -.00024842  00000-0 -20742-2 0  9992,2 55279  69.9989  97.6944 0003266 257.4590 102.6204 14.98465490 19597,6949.774,96.098,573.909,569.369,0.0
55279.0,STARLINK-5323,PAYLOAD,2023-05-24 05:59:10,14.98463115,0.0003084,69.9989,97.3576,249.1346,110.9483,-0.0020173,-0.00024163,0.0,0 STARLINK-5323,1 55279U 23010L   23144.24942454 -.00024163  00000-0 -20173-2 0  9995,2 55279  69.9989  97.3576 0003084 249.1346 110.9483 14.98463115 19931,6949.781,96.098,573.79,569.503,0.0
55279.0,STARLINK-5323,PAYLOAD,2023-05-25 22:02:34,14.98332423,0.0003388,69.9995,93.1498,269.9272,90.1498,-7.4791e-05,-9.85e-06,0.0,0 STARLINK-5323,1 55279U 23010L   23145.91845180 -.00000985  00000-0 -74791-4 0  9991,2 55279  69.9995  93.1498 0003388 269.9272  90.1498 14.98332423 20181,6950.185,96.107,574.405,569.696,0.0
55279.0,STARLINK-5323,PAYLOAD,2023-05-26 04:27:06,14.98335192,0.0003375,69.9995,92.4764,269.6764,90.4008,-3.8309e-05,-5.5e-06,0.0,0 STARLINK-5323,1 55279U 23010L   23146.18548835 -.00000550  00000-0 -38309-4 0  9991,2 55279  69.9995  92.4764 0003375 269.6764  90.4008 14.98335192 19902,6950.177,96.107,574.388,569.696,0.0
55279.0,STARLINK-5323,PAYLOAD,2023-05-26 06:03:14,14.98336015,0.0003359,69.9994,92.3081,269.7304,90.347,-2.791e-05,-4.26e-06,0.0,0 STARLINK-5323,1 55279U 23010L   23146.25224739 -.00000426  00000-0 -27910-4 0  9991,2 55279  69.9994  92.3081 0003359 269.7304  90.3470 14.98336015 20230,6950.174,96.107,574.374,569.705,0.0
55279.0,STARLINK-5323,PAYLOAD,2023-05-26 22:04:35,14.98326301,0.0003334,69.9995,90.6249,269.7637,90.3139,3.6452e-06,-5e-07,0.0,0 STARLINK-5323,1 55279U 23010L   23146.91985233 -.00000050  00000-0  36452-5 0  9991,2 55279  69.9995  90.6249 0003334 269.7637  90.3139 14.98326301 20330,6950.204,96.107,574.387,569.752,0.0
55279.0,STARLINK-5323,PAYLOAD,2023-05-27 02:52:59,14.98327432,0.0003344,69.9994,90.1198,269.3834,90.6942,1.4905e-05,8.5e-07,0.0,0 STARLINK-5323,1 55279U 23010L   23147.12013159  .00000085  00000-0  14905-4 0  9999,2 55279  69.9994  90.1198 0003344 269.3834  90.6942 14.98327432 20042,6950.201,96.107,574.39,569.742,0.0
55279.0,STARLINK-5323,PAYLOAD,2023-05-27 22:06:35,14.98330049,0.0003326,69.9993,88.0995,269.802,90.2758,3.5398e-05,3.29e-06,0.0,0 STARLINK-5323,1 55279U 23010L   23147.92124954  .00000329  00000-0  35398-4 0  9993,2 55279  69.9993  88.0995 0003326 269.8020  90.2758 14.98330049 20481,6950.193,96.107,574.369,569.746,0.0
55279.0,STARLINK-5323,PAYLOAD,2023-05-28 02:54:59,14.98333621,0.0003324,69.9994,87.5946,269.5859,90.4919,2.9509e-05,2.59e-06,0.0,0 STARLINK-5323,1 55279U 23010L   23148.12152729  .00000259  00000-0  29509-4 0  9996,2 55279  69.9994  87.5946 0003324 269.5859  90.4919 14.98333621 20195,6950.182,96.107,574.357,569.736,0.0
55279.0,STARLINK-5323,PAYLOAD,2023-05-28 04:31:07,14.98334691,0.0003311,69.9994,87.4262,269.5355,90.5425,4.148e-05,4.02e-06,0.0,0 STARLINK-5323,1 55279U 23010L   23148.18828621  .00000402  00000-0  41480-4 0  9995,2 55279  69.9994  87.4262 0003311 269.5355  90.5425 14.98334691 20520,6950.178,96.107,574.345,569.742,0.0
55279.0,STARLINK-5323,PAYLOAD,2023-05-28 20:32:28,14.98327889,0.0003191,69.9998,85.7429,269.694,90.3853,1.7858e-05,1.2e-06,0.0,0 STARLINK-5323,1 55279U 23010L   23148.85589062  .00000120  00000-0  17858-4 0  9991,2 55279  69.9998  85.7429 0003191 269.6940  90.3853 14.98327889 20622,6950.199,96.107,574.282,569.847,0.0
55279.0,STARLINK-5323,PAYLOAD,2023-05-29 02:57:00,14.98378831,0.0002879,69.9998,85.0695,262.3623,97.7209,-0.00079812,-9.615e-05,0.0,0 STARLINK-5323,1 55279U 23010L   23149.12291990 -.00009615  00000-0 -79812-3 0  9999,2 55279  69.9998  85.0695 0002879 262.3623  97.7209 14.98378831 20348,6950.042,96.104,573.908,569.906,0.0
